[{"OBJECT_NAME":"STARLINK-30460","OBJECT_ID":"2023-144G","EPOCH":"2026-03-09T01:53:44.811168","MEAN_MOTION":15.2718983,"ECCENTRICITY":0.00037788,"INCLINATION":43.0032,"RA_OF_ASC_NODE":288.6845,"ARG_OF_PERICENTER":246.9964,"MEAN_ANOMALY":113.049,"EPHEMERIS_TYPE":0,"CLASSIFICATION_TYPE":"U","NORAD_CAT_ID":57870,"ELEMENT_SET_NO":999,"REV_AT_EPOCH":13755,"BSTAR":0.0019032044,"MEAN_MOTION_DOT":0.00051864,"MEAN_MOTION_DDOT":0},{"OBJECT_NAME":"HERMES-2","OBJECT_ID":"2025-052AK","EPOCH":"2026-03-09T22:17:00.130272","MEAN_MOTION":15.28021069,"ECCENTRICITY":0.00063399,"INCLINATION":97.4004,"RA_OF_ASC_NODE":324.4926,"ARG_OF_PERICENTER":99.416,"MEAN_ANOMALY":260.7796,"EPHEMERIS_TYPE":0,"CLASSIFICATION_TYPE":"U","NORAD_CAT_ID":63243,"ELEMENT_SET_NO":999,"REV_AT_EPOCH":5485,"BSTAR":0.00034839454,"MEAN_MOTION_DOT":9.456e-5,"MEAN_MOTION_DDOT":0}]
